SL-3 R/B                
1 13403U 82079B   25334.98993282  .00006047  00000+0  25078-3 0  9995
2 13403  81.1460 309.5102 0026538 136.8794 223.4524 15.23381032362668
SL-14 R/B               
1 13553U 82092B   25334.76517471  .00000570  00000+0  61481-4 0  9998
2 13553  82.5688 233.9095 0018814 269.8316 144.9759 14.86535451314238
SL-3 R/B                
1 13819U 83010B   25334.84144328  .00014963  00000+0  33698-3 0  9999
2 13819  81.1023 123.1365 0017735  32.3790 327.8537 15.42980767342684
SL-3 R/B                
1 14208U 83075B   25334.99545494  .00011158  00000+0  32056-3 0  9998
2 14208  97.6103 331.0885 0021508 218.6678 141.3027 15.35776554314997
COSMOS 1536             
1 14699U 84013A   25334.64682168  .00006481  00000+0  27924-3 0  9998
2 14699  82.5471 206.1543 0013245 273.1387  86.8333 15.22320192257546
SL-14 R/B               
1 14820U 84027B   25334.97260177  .00000627  00000+0  69144-4 0  9994
2 14820  82.5410 337.5926 0016630 303.4106  56.5519 14.85853866232973
SL-8 R/B                
1 15483U 85006B   25334.79412536  .00000302  00000+0  10881-3 0  9999
2 15483  74.0461  83.1117 0018167  18.6343  99.5000 14.37709408139812
SL-12 R/B(2)            
1 15772U 85042D   25334.99846432  .00000117  00000+0  74207-4 0  9995
2 15772  71.1080 296.2245 0037673 278.6637 145.3010 14.21945781100362
SL-14 R/B               
1 15945U 85069B   25334.85274008  .00000692  00000+0  75606-4 0  9997
2 15945  82.5254 117.8776 0019393 155.9099 204.3029 14.86300527158158
SL-16 R/B               
1 16182U 85097B   25334.79702380 -.00000184  00000+0 -68246-4 0  9994
2 16182  71.0035 348.7470 0005969  30.1407 142.2288 14.16582129 73223
SL-14 R/B               
1 16496U 86006B   25334.98850631  .00000815  00000+0  84509-4 0  9996
2 16496  82.5270 352.6093 0075389 239.2868 120.0907 14.86645972134548
COSMOS 1743             
1 16719U 86034A   25334.98207229  .00023499  00000+0  39980-3 0  9999
2 16719  82.5353 176.7956 0005022 305.8827  54.1959 15.51259874164916
