CCSDS_OMM_VERS = 2.0
CREATION_DATE  = 
ORIGINATOR     = 

OBJECT_NAME    = SL-3 R/B
OBJECT_ID      = 1982-079B
CENTER_NAME    = EARTH
REF_FRAME      = TEME
TIME_SYSTEM    = UTC
MEAN_ELEMENT_THEORY = SGP/SGP4

EPOCH          = 2025-11-30T23:45:30.195648
MEAN_MOTION    = 15.23381032
ECCENTRICITY   = .00265382
INCLINATION    = 81.1460
RA_OF_ASC_NODE = 309.5102
ARG_OF_PERICENTER = 136.8794
MEAN_ANOMALY   = 223.4524

EPHEMERIS_TYPE = 0
CLASSIFICATION_TYPE = U
NORAD_CAT_ID   = 13403
ELEMENT_SET_NO = 999
REV_AT_EPOCH   = 36266
BSTAR          = .25077897E-3
MEAN_MOTION_DOT = .6047E-4
MEAN_MOTION_DDOT = 0

CCSDS_OMM_VERS = 2.0
CREATION_DATE  = 
ORIGINATOR     = 

OBJECT_NAME    = SL-14 R/B
OBJECT_ID      = 1982-092B
CENTER_NAME    = EARTH
REF_FRAME      = TEME
TIME_SYSTEM    = UTC
MEAN_ELEMENT_THEORY = SGP/SGP4

EPOCH          = 2025-11-30T18:21:51.094944
MEAN_MOTION    = 14.86535451
ECCENTRICITY   = .00188148
INCLINATION    = 82.5688
RA_OF_ASC_NODE = 233.9095
ARG_OF_PERICENTER = 269.8316
MEAN_ANOMALY   = 144.9759

EPHEMERIS_TYPE = 0
CLASSIFICATION_TYPE = U
NORAD_CAT_ID   = 13553
ELEMENT_SET_NO = 999
REV_AT_EPOCH   = 31423
BSTAR          = .61481202E-4
MEAN_MOTION_DOT = .57E-5
MEAN_MOTION_DDOT = 0

CCSDS_OMM_VERS = 2.0
CREATION_DATE  = 
ORIGINATOR     = 

OBJECT_NAME    = SL-3 R/B
OBJECT_ID      = 1983-010B
CENTER_NAME    = EARTH
REF_FRAME      = TEME
TIME_SYSTEM    = UTC
MEAN_ELEMENT_THEORY = SGP/SGP4

EPOCH          = 2025-11-30T20:11:40.699392
MEAN_MOTION    = 15.42980767
ECCENTRICITY   = .00177356
INCLINATION    = 81.1023
RA_OF_ASC_NODE = 123.1365
ARG_OF_PERICENTER = 32.3790
MEAN_ANOMALY   = 327.8537

EPHEMERIS_TYPE = 0
CLASSIFICATION_TYPE = U
NORAD_CAT_ID   = 13819
ELEMENT_SET_NO = 999
REV_AT_EPOCH   = 34268
BSTAR          = .33697643E-3
MEAN_MOTION_DOT = .14963E-3
MEAN_MOTION_DDOT = 0

CCSDS_OMM_VERS = 2.0
CREATION_DATE  = 
ORIGINATOR     = 

OBJECT_NAME    = SL-3 R/B
OBJECT_ID      = 1983-075B
CENTER_NAME    = EARTH
REF_FRAME      = TEME
TIME_SYSTEM    = UTC
MEAN_ELEMENT_THEORY = SGP/SGP4

EPOCH          = 2025-11-30T23:53:27.306816
MEAN_MOTION    = 15.35776554
ECCENTRICITY   = .00215081
INCLINATION    = 97.6103
RA_OF_ASC_NODE = 331.0885
ARG_OF_PERICENTER = 218.6678
MEAN_ANOMALY   = 141.3027

EPHEMERIS_TYPE = 0
CLASSIFICATION_TYPE = U
NORAD_CAT_ID   = 14208
ELEMENT_SET_NO = 999
REV_AT_EPOCH   = 31499
BSTAR          = .32055767E-3
MEAN_MOTION_DOT = .11158E-3
MEAN_MOTION_DDOT = 0

CCSDS_OMM_VERS = 2.0
CREATION_DATE  = 
ORIGINATOR     = 

OBJECT_NAME    = COSMOS 1536
OBJECT_ID      = 1984-013A
CENTER_NAME    = EARTH
REF_FRAME      = TEME
TIME_SYSTEM    = UTC
MEAN_ELEMENT_THEORY = SGP/SGP4

EPOCH          = 2025-11-30T15:31:25.393152
MEAN_MOTION    = 15.22320192
ECCENTRICITY   = .00132455
INCLINATION    = 82.5471
RA_OF_ASC_NODE = 206.1543
ARG_OF_PERICENTER = 273.1387
MEAN_ANOMALY   = 86.8333

EPHEMERIS_TYPE = 0
CLASSIFICATION_TYPE = U
NORAD_CAT_ID   = 14699
ELEMENT_SET_NO = 999
REV_AT_EPOCH   = 25754
BSTAR          = .27923851E-3
MEAN_MOTION_DOT = .6481E-4
MEAN_MOTION_DDOT = 0

CCSDS_OMM_VERS = 2.0
CREATION_DATE  = 
ORIGINATOR     = 

OBJECT_NAME    = SL-14 R/B
OBJECT_ID      = 1984-027B
CENTER_NAME    = EARTH
REF_FRAME      = TEME
TIME_SYSTEM    = UTC
MEAN_ELEMENT_THEORY = SGP/SGP4

EPOCH          = 2025-11-30T23:20:32.792928
MEAN_MOTION    = 14.85853866
ECCENTRICITY   = .00166308
INCLINATION    = 82.5410
RA_OF_ASC_NODE = 337.5926
ARG_OF_PERICENTER = 303.4106
MEAN_ANOMALY   = 56.5519

EPHEMERIS_TYPE = 0
CLASSIFICATION_TYPE = U
NORAD_CAT_ID   = 14820
ELEMENT_SET_NO = 999
REV_AT_EPOCH   = 23297
BSTAR          = .69144341E-4
MEAN_MOTION_DOT = .627E-5
MEAN_MOTION_DDOT = 0

CCSDS_OMM_VERS = 2.0
CREATION_DATE  = 
ORIGINATOR     = 

OBJECT_NAME    = SL-8 R/B
OBJECT_ID      = 1985-006B
CENTER_NAME    = EARTH
REF_FRAME      = TEME
TIME_SYSTEM    = UTC
MEAN_ELEMENT_THEORY = SGP/SGP4

EPOCH          = 2025-11-30T19:03:32.431104
MEAN_MOTION    = 14.37709408
ECCENTRICITY   = .00181677
INCLINATION    = 74.0461
RA_OF_ASC_NODE = 83.1117
ARG_OF_PERICENTER = 18.6343
MEAN_ANOMALY   = 99.5000

EPHEMERIS_TYPE = 0
CLASSIFICATION_TYPE = U
NORAD_CAT_ID   = 15483
ELEMENT_SET_NO = 999
REV_AT_EPOCH   = 13981
BSTAR          = .10881444E-3
MEAN_MOTION_DOT = .302E-5
MEAN_MOTION_DDOT = 0

CCSDS_OMM_VERS = 2.0
CREATION_DATE  = 
ORIGINATOR     = 

OBJECT_NAME    = SL-12 R/B(2)
OBJECT_ID      = 1985-042D
CENTER_NAME    = EARTH
REF_FRAME      = TEME
TIME_SYSTEM    = UTC
MEAN_ELEMENT_THEORY = SGP/SGP4

EPOCH          = 2025-11-30T23:57:47.317248
MEAN_MOTION    = 14.21945781
ECCENTRICITY   = .00376731
INCLINATION    = 71.1080
RA_OF_ASC_NODE = 296.2245
ARG_OF_PERICENTER = 278.6637
MEAN_ANOMALY   = 145.3010

EPHEMERIS_TYPE = 0
CLASSIFICATION_TYPE = U
NORAD_CAT_ID   = 15772
ELEMENT_SET_NO = 999
REV_AT_EPOCH   = 10036
BSTAR          = .74207224E-4
MEAN_MOTION_DOT = .117E-5
MEAN_MOTION_DDOT = 0

CCSDS_OMM_VERS = 2.0
CREATION_DATE  = 
ORIGINATOR     = 

OBJECT_NAME    = SL-14 R/B
OBJECT_ID      = 1985-069B
CENTER_NAME    = EARTH
REF_FRAME      = TEME
TIME_SYSTEM    = UTC
MEAN_ELEMENT_THEORY = SGP/SGP4

EPOCH          = 2025-11-30T20:27:56.742912
MEAN_MOTION    = 14.86300527
ECCENTRICITY   = .00193934
INCLINATION    = 82.5254
RA_OF_ASC_NODE = 117.8776
ARG_OF_PERICENTER = 155.9099
MEAN_ANOMALY   = 204.3029

EPHEMERIS_TYPE = 0
CLASSIFICATION_TYPE = U
NORAD_CAT_ID   = 15945
ELEMENT_SET_NO = 999
REV_AT_EPOCH   = 15815
BSTAR          = .75605688E-4
MEAN_MOTION_DOT = .692E-5
MEAN_MOTION_DDOT = 0

CCSDS_OMM_VERS = 2.0
CREATION_DATE  = 
ORIGINATOR     = 

OBJECT_NAME    = SL-16 R/B
OBJECT_ID      = 1985-097B
CENTER_NAME    = EARTH
REF_FRAME      = TEME
TIME_SYSTEM    = UTC
MEAN_ELEMENT_THEORY = SGP/SGP4

EPOCH          = 2025-11-30T19:07:42.856320
MEAN_MOTION    = 14.16582129
ECCENTRICITY   = .00059692
INCLINATION    = 71.0035
RA_OF_ASC_NODE = 348.7470
ARG_OF_PERICENTER = 30.1407
MEAN_ANOMALY   = 142.2288

EPHEMERIS_TYPE = 0
CLASSIFICATION_TYPE = U
NORAD_CAT_ID   = 16182
ELEMENT_SET_NO = 999
REV_AT_EPOCH   = 7322
BSTAR          = -.68245998E-4
MEAN_MOTION_DOT = -.184E-5
MEAN_MOTION_DDOT = 0

CCSDS_OMM_VERS = 2.0
CREATION_DATE  = 
ORIGINATOR     = 

OBJECT_NAME    = SL-14 R/B
OBJECT_ID      = 1986-006B
CENTER_NAME    = EARTH
REF_FRAME      = TEME
TIME_SYSTEM    = UTC
MEAN_ELEMENT_THEORY = SGP/SGP4

EPOCH          = 2025-11-30T23:43:26.945184
MEAN_MOTION    = 14.86645972
ECCENTRICITY   = .00753899
INCLINATION    = 82.5270
RA_OF_ASC_NODE = 352.6093
ARG_OF_PERICENTER = 239.2868
MEAN_ANOMALY   = 120.0907

EPHEMERIS_TYPE = 0
CLASSIFICATION_TYPE = U
NORAD_CAT_ID   = 16496
ELEMENT_SET_NO = 999
REV_AT_EPOCH   = 13454
BSTAR          = .84509046E-4
MEAN_MOTION_DOT = .815E-5
MEAN_MOTION_DDOT = 0

CCSDS_OMM_VERS = 2.0
CREATION_DATE  = 
ORIGINATOR     = 

OBJECT_NAME    = COSMOS 1743
OBJECT_ID      = 1986-034A
CENTER_NAME    = EARTH
REF_FRAME      = TEME
TIME_SYSTEM    = UTC
MEAN_ELEMENT_THEORY = SGP/SGP4

EPOCH          = 2025-11-30T23:34:11.045856
MEAN_MOTION    = 15.51259874
ECCENTRICITY   = .00050224
INCLINATION    = 82.5353
RA_OF_ASC_NODE = 176.7956
ARG_OF_PERICENTER = 305.8827
MEAN_ANOMALY   = 54.1959

EPHEMERIS_TYPE = 0
CLASSIFICATION_TYPE = U
NORAD_CAT_ID   = 16719
ELEMENT_SET_NO = 999
REV_AT_EPOCH   = 16491
BSTAR          = .39979533E-3
MEAN_MOTION_DOT = .23499E-3
MEAN_MOTION_DDOT = 0

